start=new Date('2021-11-30T00:00:00.000Z').valueOf();
sats=[{"PERIAPSIS":"546.305","INCLINATION":"53.0561","RCS_SIZE":"LARGE","EPHEMERIS_TYPE":"0","MEAN_ELEMENT_THEORY":"SGP4","MEAN_ANOMALY":"289.1026","MEAN_MOTION":"15.06394432","CLASSIFICATION_TYPE":"U","MEAN_MOTION_DOT":"0.00000685","BSTAR":"0.00006486000000","LAUNCH_DATE":"2020-06-13","ECCENTRICITY":"0.00013370","OBJECT_NAME":"STARLINK-1511","OBJECT_ID":"2020-038AP","TIME_SYSTEM":"UTC","CENTER_NAME":"EARTH","OBJECT_TYPE":"PAYLOAD","REF_FRAME":"TEME","APOAPSIS":"548.157","TLE_LINE1":"1 45767U 20038AP  21333.59262416  .00000685  00000-0  64860-4 0  9996","FILE":"3227094","ARG_OF_PERICENTER":"71.0107","EPOCH":"2021-11-29T14:13:22.727424","SITE":"AFETR","RA_OF_ASC_NODE":"24.6609","COUNTRY_CODE":"US","MEAN_MOTION_DDOT":"0.0000000000000","REV_AT_EPOCH":"8117","NORAD_CAT_ID":"45767","SEMIMAJOR_AXIS":"6925.366","PERIOD":"95.592","GP_ID":"190748265","ELEMENT_SET_NO":"999","TLE_LINE2":"2 45767  53.0561  24.6609 0001337  71.0107 289.1026 15.06394432 81170","DECAY_DATE":null},{"FILE":"3226898","APOAPSIS":"548.116","TLE_LINE1":"1 45768U 20038AQ  21333.44151099 -.00001693  00000-0 -94796-4 0  9998","TIME_SYSTEM":"UTC","OBJECT_ID":"2020-038AQ","OBJECT_TYPE":"PAYLOAD","REF_FRAME":"TEME","CENTER_NAME":"EARTH","OBJECT_NAME":"STARLINK-1521","MEAN_MOTION_DOT":"-0.00001693","CLASSIFICATION_TYPE":"U","ECCENTRICITY":"0.00012670","LAUNCH_DATE":"2020-06-13","BSTAR":"-0.00009479600000","INCLINATION":"53.0571","RCS_SIZE":"LARGE","EPHEMERIS_TYPE":"0","MEAN_ELEMENT_THEORY":"SGP4","MEAN_ANOMALY":"296.8876","PERIAPSIS":"546.361","MEAN_MOTION":"15.06391860","DECAY_DATE":null,"TLE_LINE2":"2 45768  53.0571  25.3450 0001267  63.2242 296.8876 15.06391860 81168","SEMIMAJOR_AXIS":"6925.374","REV_AT_EPOCH":"8116","NORAD_CAT_ID":"45768","PERIOD":"95.593","GP_ID":"190719919","ELEMENT_SET_NO":"999","RA_OF_ASC_NODE":"25.3450","COUNTRY_CODE":"US","SITE":"AFETR","MEAN_MOTION_DDOT":"0.0000000000000","EPOCH":"2021-11-29T10:35:46.549536","ARG_OF_PERICENTER":"63.2242"},{"ARG_OF_PERICENTER":"67.3532","EPOCH":"2021-11-29T11:10:15.762144","MEAN_MOTION_DDOT":"0.0000000000000","SITE":"AFETR","COUNTRY_CODE":"US","RA_OF_ASC_NODE":"45.2324","ELEMENT_SET_NO":"999","GP_ID":"190720171","PERIOD":"95.592","NORAD_CAT_ID":"45769","REV_AT_EPOCH":"8088","SEMIMAJOR_AXIS":"6925.359","TLE_LINE2":"2 45769  53.0561  45.2324 0001140  67.3532 292.7578 15.06396537 80884","DECAY_DATE":null,"MEAN_MOTION":"15.06396537","PERIAPSIS":"546.435","MEAN_ELEMENT_THEORY":"SGP4","MEAN_ANOMALY":"292.7578","INCLINATION":"53.0561","RCS_SIZE":"LARGE","EPHEMERIS_TYPE":"0","LAUNCH_DATE":"2020-06-13","ECCENTRICITY":"0.00011400","BSTAR":"0.00001930900000","CLASSIFICATION_TYPE":"U","MEAN_MOTION_DOT":"0.00000006","OBJECT_NAME":"STARLINK-1459","CENTER_NAME":"EARTH","REF_FRAME":"TEME","OBJECT_TYPE":"PAYLOAD","OBJECT_ID":"2020-038AR","TIME_SYSTEM":"UTC","APOAPSIS":"548.014","TLE_LINE1":"1 45769U 20038AR  21333.46546021  .00000006  00000-0  19309-4 0  9996","FILE":"3226898"},{"GP_ID":"190720921","ELEMENT_SET_NO":"999","PERIOD":"95.593","NORAD_CAT_ID":"45770","REV_AT_EPOCH":"8143","SEMIMAJOR_AXIS":"6925.375","TLE_LINE2":"2 45770  53.0538   5.2246 0001552  61.6008 298.5137 15.06391534 81430","DECAY_DATE":null,"ARG_OF_PERICENTER":"61.6008","EPOCH":"2021-11-29T11:14:12.981984","MEAN_MOTION_DDOT":"0.0000000000000","SITE":"AFETR","RA_OF_ASC_NODE":"5.2246","COUNTRY_CODE":"US","CENTER_NAME":"EARTH","REF_FRAME":"TEME","OBJECT_TYPE":"PAYLOAD","OBJECT_ID":"2020-038AS","TIME_SYSTEM":"UTC","APOAPSIS":"548.314","TLE_LINE1":"1 45770U 20038AS  21333.46820581  .00000002  00000-0  19032-4 0  9993","FILE":"3226898","MEAN_MOTION":"15.06391534","PERIAPSIS":"546.165","MEAN_ANOMALY":"298.5137","MEAN_ELEMENT_THEORY":"SGP4","RCS_SIZE":"LARGE","INCLINATION":"53.0538","EPHEMERIS_TYPE":"0","ECCENTRICITY":"0.00015520","LAUNCH_DATE":"2020-06-13","BSTAR":"0.00001903200000","MEAN_MOTION_DOT":"0.00000002","CLASSIFICATION_TYPE":"U","OBJECT_NAME":"STARLINK-1462"},{"APOAPSIS":"548.294","TLE_LINE1":"1 45771U 20038AT  21333.39542573  .00000182  00000-0  31113-4 0  9991","FILE":"3226898","TIME_SYSTEM":"UTC","OBJECT_ID":"2020-038AT","CENTER_NAME":"EARTH","OBJECT_TYPE":"PAYLOAD","REF_FRAME":"TEME","MEAN_MOTION_DOT":"0.00000182","CLASSIFICATION_TYPE":"U","LAUNCH_DATE":"2020-06-13","BSTAR":"0.00003111300000","ECCENTRICITY":"0.00015510","OBJECT_NAME":"STARLINK-1463","PERIAPSIS":"546.146","INCLINATION":"53.0560","RCS_SIZE":"LARGE","EPHEMERIS_TYPE":"0","MEAN_ELEMENT_THEORY":"SGP4","MEAN_ANOMALY":"301.1231","MEAN_MOTION":"15.06397981","TLE_LINE2":"2 45771  53.0560   5.5482 0001551  58.9911 301.1231 15.06397981 81429","DECAY_DATE":null,"REV_AT_EPOCH":"8142","NORAD_CAT_ID":"45771","SEMIMAJOR_AXIS":"6925.355","PERIOD":"95.592","GP_ID":"190719170","ELEMENT_SET_NO":"999","SITE":"AFETR","RA_OF_ASC_NODE":"5.5482","COUNTRY_CODE":"US","MEAN_MOTION_DDOT":"0.0000000000000","ARG_OF_PERICENTER":"58.9911","EPOCH":"2021-11-29T09:29:24.783072"},{"TLE_LINE1":"1 45772U 20038AU  21333.51705548  .00000197  00000-0  32100-4 0  9992","APOAPSIS":"548.364","FILE":"3226898","CENTER_NAME":"EARTH","OBJECT_TYPE":"PAYLOAD","REF_FRAME":"TEME","TIME_SYSTEM":"UTC","OBJECT_ID":"2020-038AU","CLASSIFICATION_TYPE":"U","MEAN_MOTION_DOT":"0.00000197","LAUNCH_DATE":"2020-06-13","ECCENTRICITY":"0.00016970","BSTAR":"0.00003210000000","OBJECT_NAME":"STARLINK-1470","MEAN_MOTION":"15.06408200","PERIAPSIS":"546.013","INCLINATION":"53.0542","RCS_SIZE":"LARGE","EPHEMERIS_TYPE":"0","MEAN_ELEMENT_THEORY":"SGP4","MEAN_ANOMALY":"302.3947","TLE_LINE2":"2 45772  53.0542   5.0064 0001697  57.7206 302.3947 15.06408200 81453","DECAY_DATE":null,"PERIOD":"95.592","GP_ID":"190719420","ELEMENT_SET_NO":"999","REV_AT_EPOCH":"8145","NORAD_CAT_ID":"45772","SEMIMAJOR_AXIS":"6925.323","MEAN_MOTION_DDOT":"0.0000000000000","SITE":"AFETR","COUNTRY_CODE":"US","RA_OF_ASC_NODE":"5.0064","ARG_OF_PERICENTER":"57.7206","EPOCH":"2021-11-29T12:24:33.593472"},{"CENTER_NAME":"EARTH","REF_FRAME":"TEME","OBJECT_TYPE":"PAYLOAD","TIME_SYSTEM":"UTC","OBJECT_ID":"2020-038AV","APOAPSIS":"548.316","TLE_LINE1":"1 45773U 20038AV  21333.44334325  .00000529  00000-0  54411-4 0  9994","FILE":"3226898","MEAN_MOTION":"15.06397197","PERIAPSIS":"546.128","MEAN_ELEMENT_THEORY":"SGP4","MEAN_ANOMALY":"289.9956","INCLINATION":"53.0559","RCS_SIZE":"LARGE","EPHEMERIS_TYPE":"0","ECCENTRICITY":"0.00015800","LAUNCH_DATE":"2020-06-13","BSTAR":"0.00005441100000","MEAN_MOTION_DOT":"0.00000529","CLASSIFICATION_TYPE":"U","OBJECT_NAME":"STARLINK-1482","GP_ID":"190720671","ELEMENT_SET_NO":"999","PERIOD":"95.592","NORAD_CAT_ID":"45773","REV_AT_EPOCH":"8144","SEMIMAJOR_AXIS":"6925.357","TLE_LINE2":"2 45773  53.0559   5.3285 0001580  70.1203 289.9956 15.06397197 81448","DECAY_DATE":null,"ARG_OF_PERICENTER":"70.1203","EPOCH":"2021-11-29T10:38:24.856800","MEAN_MOTION_DDOT":"0.0000000000000","SITE":"AFETR","COUNTRY_CODE":"US","RA_OF_ASC_NODE":"5.3285"},{"SEMIMAJOR_AXIS":"6925.384","NORAD_CAT_ID":"45774","REV_AT_EPOCH":"8141","GP_ID":"190720422","ELEMENT_SET_NO":"999","PERIOD":"95.593","DECAY_DATE":null,"TLE_LINE2":"2 45774  53.0543   6.0532 0001395  68.6232 291.4905 15.06388456 81410","EPOCH":"2021-11-29T06:44:52.591200","ARG_OF_PERICENTER":"68.6232","RA_OF_ASC_NODE":"6.0532","COUNTRY_CODE":"US","SITE":"AFETR","MEAN_MOTION_DDOT":"0.0000000000000","OBJECT_ID":"2020-038AW","TIME_SYSTEM":"UTC","REF_FRAME":"TEME","OBJECT_TYPE":"PAYLOAD","CENTER_NAME":"EARTH","FILE":"3226898","TLE_LINE1":"1 45774U 20038AW  21333.28116425  .00000004  00000-0  19140-4 0  9994","APOAPSIS":"548.215","MEAN_ANOMALY":"291.4905","MEAN_ELEMENT_THEORY":"SGP4","RCS_SIZE":"LARGE","EPHEMERIS_TYPE":"0","INCLINATION":"53.0543","PERIAPSIS":"546.283","MEAN_MOTION":"15.06388456","OBJECT_NAME":"STARLINK-1485","BSTAR":"0.00001914000000","LAUNCH_DATE":"2020-06-13","ECCENTRICITY":"0.00013950","MEAN_MOTION_DOT":"0.00000004","CLASSIFICATION_TYPE":"U"},{"COUNTRY_CODE":"US","RA_OF_ASC_NODE":"5.1475","SITE":"AFETR","MEAN_MOTION_DDOT":"0.0000000000000","EPOCH":"2021-11-29T11:36:47.844576","ARG_OF_PERICENTER":"64.1660","DECAY_DATE":null,"TLE_LINE2":"2 45775  53.0559   5.1475 0001608  64.1660 295.9495 15.06402406 81456","SEMIMAJOR_AXIS":"6925.341","REV_AT_EPOCH":"8145","NORAD_CAT_ID":"45775","PERIOD":"95.592","ELEMENT_SET_NO":"999","GP_ID":"190719670","OBJECT_NAME":"STARLINK-1488","MEAN_MOTION_DOT":"0.00002908","CLASSIFICATION_TYPE":"U","LAUNCH_DATE":"2020-06-13","BSTAR":"0.00021401000000","ECCENTRICITY":"0.00016080","INCLINATION":"53.0559","RCS_SIZE":"LARGE","EPHEMERIS_TYPE":"0","MEAN_ANOMALY":"295.9495","MEAN_ELEMENT_THEORY":"SGP4","PERIAPSIS":"546.093","MEAN_MOTION":"15.06402406","FILE":"3226898","APOAPSIS":"548.320","TLE_LINE1":"1 45775U 20038AX  21333.48388709  .00002908  00000-0  21401-3 0  9990","OBJECT_ID":"2020-038AX","TIME_SYSTEM":"UTC","OBJECT_TYPE":"PAYLOAD","REF_FRAME":"TEME","CENTER_NAME":"EARTH"},{"MEAN_MOTION":"15.06403004","PERIAPSIS":"546.088","MEAN_ELEMENT_THEORY":"SGP4","MEAN_ANOMALY":"290.1694","RCS_SIZE":"LARGE","INCLINATION":"53.0545","EPHEMERIS_TYPE":"0","LAUNCH_DATE":"2020-06-13","BSTAR":"0.00014550000000","ECCENTRICITY":"0.00016120","CLASSIFICATION_TYPE":"U","MEAN_MOTION_DOT":"0.00001886","OBJECT_NAME":"STARLINK-1489","CENTER_NAME":"EARTH","REF_FRAME":"TEME","OBJECT_TYPE":"PAYLOAD","OBJECT_ID":"2020-038AY","TIME_SYSTEM":"UTC","APOAPSIS":"548.321","TLE_LINE1":"1 45776U 20038AY  21333.49125488  .00001886  00000-0  14550-3 0  9996","FILE":"3226898","ARG_OF_PERICENTER":"69.9469","EPOCH":"2021-11-29T11:47:24.421632","MEAN_MOTION_DDOT":"0.0000000000000","SITE":"AFETR","COUNTRY_CODE":"US","RA_OF_ASC_NODE":"5.1135","GP_ID":"190719920","ELEMENT_SET_NO":"999","PERIOD":"95.592","NORAD_CAT_ID":"45776","REV_AT_EPOCH":"8145","SEMIMAJOR_AXIS":"6925.339","TLE_LINE2":"2 45776  53.0545   5.1135 0001612  69.9469 290.1694 15.06403004 81453","DECAY_DATE":null}];
